NORAD_CAT_ID,OBJECT_NAME,OBJECT_TYPE,EPOCH,MEAN_MOTION,ECCENTRICITY,INCLINATION,RA_OF_ASC_NODE,ARG_OF_PERICENTER,MEAN_ANOMALY,BSTAR,MEAN_MOTION_DOT,MEAN_MOTION_DDOT,TLE_LINE0,TLE_LINE1,TLE_LINE2,SEMIMAJOR_AXIS,PERIOD,APOGEE,PERIGEE,DECAYED
52675.0,STARLINK-3934,PAYLOAD,2023-01-30 11:17:53,15.08834639,0.0001132,53.217,195.8256,96.2096,263.9025,6.2189e-06,-1.89e-06,0.0,0 STARLINK-3934,1 52675U 22053V   23030.47076003 -.00000189  00000-0  62189-5 0  9992,2 52675  53.2170 195.8256 0001132  96.2096 263.9025 15.08834639 39949,6917.897,95.438,540.545,538.979,0.0
52675.0,STARLINK-3934,PAYLOAD,2023-01-30 20:50:12,15.08838631,0.000114,53.2169,194.0412,98.0999,262.0123,2.9675e-05,1.84e-06,0.0,0 STARLINK-3934,1 52675U 22053V   23030.86819718  .00000184  00000-0  29675-4 0  9999,2 52675  53.2169 194.0412 0001140  98.0999 262.0123 15.08838631 40007,6917.885,95.438,540.538,538.961,0.0
52675.0,STARLINK-3934,PAYLOAD,2023-01-31 11:08:40,15.08836512,0.0001197,53.217,191.3653,98.6573,261.4555,1.4398e-05,-5.9e-07,0.0,0 STARLINK-3934,1 52675U 22053V   23031.46436027 -.00000059  00000-0  14398-4 0  9992,2 52675  53.2170 191.3653 0001197  98.6573 261.4555 15.08836512 40099,6917.891,95.438,540.584,538.928,0.0
52675.0,STARLINK-3934,PAYLOAD,2023-02-01 03:02:31,15.08838173,0.0001197,53.2162,188.392,95.1971,264.9158,4.7403e-05,4.67e-06,0.0,0 STARLINK-3934,1 52675U 22053V   23032.12675899  .00000467  00000-0  47403-4 0  9993,2 52675  53.2162 188.3920 0001197  95.1971 264.9158 15.08838173 39761,6917.886,95.438,540.579,538.923,0.0
52675.0,STARLINK-3934,PAYLOAD,2023-02-01 09:24:04,15.08834071,0.0001267,53.2156,187.2028,93.7797,266.334,2.7825e-05,1.55e-06,0.0,0 STARLINK-3934,1 52675U 22053V   23032.39172303  .00000155  00000-0  27825-4 0  9994,2 52675  53.2156 187.2028 0001267  93.7797 266.3340 15.08834071 40235,6917.899,95.438,540.64,538.887,0.0
52675.0,STARLINK-3934,PAYLOAD,2023-02-02 10:50:15,15.08836706,0.0001178,53.2192,182.4471,97.2021,262.9105,2.2478e-05,7e-07,0.0,0 STARLINK-3934,1 52675U 22053V   23033.45156469  .00000070  00000-0  22478-4 0  9992,2 52675  53.2192 182.4471 0001178  97.2021 262.9105 15.08836706 40399,6917.89,95.438,540.57,538.941,0.0
52675.0,STARLINK-3934,PAYLOAD,2023-02-03 10:41:02,15.08835026,0.0001342,53.2193,177.9866,93.202,266.9125,2.5898e-05,1.24e-06,0.0,0 STARLINK-3934,1 52675U 22053V   23034.44516810  .00000124  00000-0  25898-4 0  9991,2 52675  53.2193 177.9866 0001342  93.2020 266.9125 15.08835026 40542,6917.896,95.438,540.689,538.832,0.0
52675.0,STARLINK-3934,PAYLOAD,2023-02-03 18:37:58,15.08838105,0.0001352,53.2164,176.4977,91.0699,269.0448,4.9393e-05,4.98e-06,0.0,0 STARLINK-3934,1 52675U 22053V   23034.77636598  .00000498  00000-0  49393-4 0  9993,2 52675  53.2164 176.4977 0001352  91.0699 269.0448 15.08838105 40167,6917.886,95.438,540.686,538.816,0.0
52675.0,STARLINK-3934,PAYLOAD,2023-02-04 08:56:23,15.08874426,0.0001208,53.2184,173.8228,94.5097,265.6033,0.00033282,5.018e-05,0.0,0 STARLINK-3934,1 52675U 22053V   23035.37249221  .00005018  00000-0  33282-3 0  9995,2 52675  53.2184 173.8228 0001208  94.5097 265.6033 15.08874426 40257,6917.775,95.435,540.476,538.804,0.0
52675.0,STARLINK-3934,PAYLOAD,2023-02-04 13:42:33,15.08861485,4.9e-05,53.2205,172.9303,105.4529,254.6517,0.00034347,5.186e-05,0.0,0 STARLINK-3934,1 52675U 22053V   23035.57121618  .00005186  00000-0  34347-3 0  9995,2 52675  53.2205 172.9303 0000490 105.4529 254.6517 15.08861485 40716,6917.815,95.436,540.019,539.341,0.0
52675.0,STARLINK-3934,PAYLOAD,2023-02-04 18:28:45,15.08829755,0.0001272,53.2169,172.0376,96.4503,263.6634,-6.5638e-05,-1.332e-05,0.0,0 STARLINK-3934,1 52675U 22053V   23035.76996789 -.00001332  00000-0 -65638-4 0  9994,2 52675  53.2169 172.0376 0001272  96.4503 263.6634 15.08829755 40316,6917.912,95.438,540.657,538.897,0.0
52675.0,STARLINK-3934,PAYLOAD,2023-02-05 13:33:23,15.08831323,0.0001351,53.217,168.47,90.2041,269.9106,-2.0557e-05,-6.15e-06,0.0,0 STARLINK-3934,1 52675U 22053V   23036.56484992 -.00000615  00000-0 -20557-4 0  9995,2 52675  53.2170 168.4700 0001351  90.2041 269.9106 15.08831323 40862,6917.907,95.438,540.707,538.837,0.0
52675.0,STARLINK-3934,PAYLOAD,2023-02-05 18:19:32,15.08835819,0.000108,53.2168,167.5771,104.7949,255.3163,-2.1544e-05,-6.31e-06,0.0,0 STARLINK-3934,1 52675U 22053V   23036.76356717 -.00000631  00000-0 -21544-4 0  9995,2 52675  53.2168 167.5771 0001080 104.7949 255.3163 15.08835819 40466,6917.893,95.438,540.505,539.011,0.0
52675.0,STARLINK-3934,PAYLOAD,2023-02-06 11:48:45,15.08903804,0.0002817,53.2165,164.3075,82.7387,277.3925,-0.00083481,-0.00013574,0.0,0 STARLINK-3934,1 52675U 22053V   23037.49218777 -.00013574  00000-0 -83481-3 0  9996,2 52675  53.2165 164.3075 0002817  82.7387 277.3925 15.08903804 40577,6917.685,95.434,541.499,537.602,0.0
52675.0,STARLINK-3934,PAYLOAD,2023-02-06 13:24:08,15.08861827,0.0001208,53.2168,164.01,90.4668,269.6463,-0.00016892,-2.977e-05,0.0,0 STARLINK-3934,1 52675U 22053V   23037.55843440 -.00002977  00000-0 -16892-3 0  9991,2 52675  53.2168 164.0100 0001208  90.4668 269.6463 15.08861827 41016,6917.814,95.436,540.514,538.843,0.0
52675.0,STARLINK-3934,PAYLOAD,2023-02-06 18:10:17,15.08859129,0.000122,53.2169,163.1173,95.2842,264.8289,3.1127e-06,-2.38e-06,0.0,0 STARLINK-3934,1 52675U 22053V   23037.75715042 -.00000238  00000-0  31127-5 0  9996,2 52675  53.2169 163.1173 0001220  95.2842 264.8289 15.08859129 40618,6917.822,95.436,540.531,538.843,0.0
52675.0,STARLINK-3934,PAYLOAD,2023-02-07 11:39:33,15.0883963,0.0001491,53.2167,159.8451,108.8128,251.3026,0.00018164,2.604e-05,0.0,0 STARLINK-3934,1 52675U 22053V   23038.48580455  .00002604  00000-0  18164-3 0  9997,2 52675  53.2167 159.8451 0001491 108.8128 251.3026 15.08839630 40722,6917.882,95.438,540.778,538.715,0.0
52675.0,STARLINK-3934,PAYLOAD,2023-02-07 13:14:56,15.08840319,0.0001441,53.2171,159.5478,107.7017,252.4132,0.00018521,2.661e-05,0.0,0 STARLINK-3934,1 52675U 22053V   23038.55204401  .00002661  00000-0  18521-3 0  9999,2 52675  53.2171 159.5478 0001441 107.7017 252.4132 15.08840319 41168,6917.879,95.438,540.741,538.748,0.0
52675.0,STARLINK-3934,PAYLOAD,2023-02-07 14:50:19,15.08844509,0.0001291,53.2178,159.2499,101.567,258.5468,0.0001405,1.949e-05,0.0,0 STARLINK-3934,1 52675U 22053V   23038.61827976  .00001949  00000-0  14050-3 0  9995,2 52675  53.2178 159.2499 0001291 101.5670 258.5468 15.08844509 41170,6917.867,95.437,540.625,538.839,0.0
52675.0,STARLINK-3934,PAYLOAD,2023-02-08 13:05:43,15.08844675,0.0001584,53.2187,155.0932,106.2793,253.8374,5.5654e-05,5.98e-06,0.0,0 STARLINK-3934,1 52675U 22053V   23039.54564175  .00000598  00000-0  55654-4 0  9992,2 52675  53.2187 155.0932 0001584 106.2793 253.8374 15.08844675 41313,6917.866,95.437,540.827,538.635,0.0
52675.0,STARLINK-3934,PAYLOAD,2023-02-08 14:41:06,15.08848375,0.0001551,53.2195,154.7967,106.9506,253.1656,7.7825e-05,9.51e-06,0.0,0 STARLINK-3934,1 52675U 22053V   23039.61187993  .00000951  00000-0  77825-4 0  9996,2 52675  53.2195 154.7967 0001551 106.9506 253.1656 15.08848375 40898,6917.855,95.437,540.793,538.647,0.0
52675.0,STARLINK-3934,PAYLOAD,2023-02-09 11:21:07,15.08833017,0.000136,53.2186,150.9286,106.7043,253.4099,-0.00015941,-2.824e-05,0.0,0 STARLINK-3934,1 52675U 22053V   23040.47300684 -.00002824  00000-0 -15941-3 0  9999,2 52675  53.2186 150.9286 0001360 106.7043 253.4099 15.08833017 41456,6917.902,95.438,540.708,538.826,0.0
52675.0,STARLINK-3934,PAYLOAD,2023-02-09 12:56:30,15.08834968,0.000145,53.2187,150.6314,107.1437,252.9714,-0.0001232,-2.248e-05,0.0,0 STARLINK-3934,1 52675U 22053V   23040.53924639 -.00002248  00000-0 -12320-3 0  9996,2 52675  53.2187 150.6314 0001450 107.1437 252.9714 15.08834968 41036,6917.896,95.438,540.764,538.758,0.0
52675.0,STARLINK-3934,PAYLOAD,2023-02-10 00:04:12,15.08837138,0.0001448,53.2188,148.55,108.3417,251.7733,-7.0998e-05,-1.418e-05,0.0,0 STARLINK-3934,1 52675U 22053V   23041.00292709 -.00001418  00000-0 -70998-4 0  9999,2 52675  53.2188 148.5500 0001448 108.3417 251.7733 15.08837138 41533,6917.889,95.438,540.756,538.752,0.0
52675.0,STARLINK-3934,PAYLOAD,2023-02-10 14:22:40,15.08850781,0.0001307,53.2177,145.8701,118.2659,241.8465,0.00019798,2.865e-05,0.0,0 STARLINK-3934,1 52675U 22053V   23041.59908220  .00002865  00000-0  19798-3 0  9990,2 52675  53.2177 145.8701 0001307 118.2659 241.8465 15.08850781 41199,6917.847,95.437,540.617,538.808,0.0
52675.0,STARLINK-3934,PAYLOAD,2023-02-10 23:55:00,15.08835461,0.0001498,53.2184,144.0911,81.3333,278.7829,3.5272e-05,2.73e-06,0.0,0 STARLINK-3934,1 52675U 22053V   23041.99653398  .00000273  00000-0  35272-4 0  9994,2 52675  53.2184 144.0911 0001498  81.3333 278.7829 15.08835461 41259,6917.894,95.438,540.796,538.723,0.0
52675.0,STARLINK-3934,PAYLOAD,2023-02-11 12:38:06,15.08834623,0.000164,53.2176,141.7126,81.6953,278.4225,0.00011228,1.499e-05,0.0,0 STARLINK-3934,1 52675U 22053V   23042.52645884  .00001499  00000-0  11228-3 0  9990,2 52675  53.2176 141.7126 0001640  81.6953 278.4225 15.08834623 41764,6917.897,95.438,540.896,538.627,0.0
52675.0,STARLINK-3934,PAYLOAD,2023-02-12 09:18:06,15.08834736,0.00016,53.2156,137.8463,90.0813,270.0363,9.1973e-05,1.176e-05,0.0,0 STARLINK-3934,1 52675U 22053V   23043.38758069  .00001176  00000-0  91973-4 0  9993,2 52675  53.2156 137.8463 0001600  90.0813 270.0363 15.08834736 41460,6917.896,95.438,540.868,538.655,0.0
52675.0,STARLINK-3934,PAYLOAD,2023-02-12 17:15:01,15.08857937,0.0001131,53.2165,136.3565,95.0125,265.0996,0.00029547,4.42e-05,0.0,0 STARLINK-3934,1 52675U 22053V   23043.71876712  .00004420  00000-0  29547-3 0  9998,2 52675  53.2165 136.3565 0001131  95.0125 265.0996 15.08857937 41517,6917.826,95.436,540.473,538.908,0.0
52675.0,STARLINK-3934,PAYLOAD,2023-02-12 23:36:34,15.08838994,0.0001446,53.2171,135.1682,84.4099,275.7058,4.0081e-05,3.5e-06,0.0,0 STARLINK-3934,1 52675U 22053V   23043.98373657  .00000350  00000-0  40081-4 0  9992,2 52675  53.2171 135.1682 0001446  84.4099 275.7058 15.08838994 41555,6917.883,95.438,540.749,538.748,0.0
